#Pass ID: 20250122_000717_NOAA 20 (JPSS-1)
#Satellite: NOAA 20 (JPSS-1)
#Configuration: NOAA 20 (JPSS-1)
#Start time: 2025-01-22 00:07:22.906934

#LorettStation: 1.0.0 05.05.2024
#Station: Regia
#Location: 37.494653 lon 55.929028 lat
#TLE: 1 43013U 17073A   25021.56147347  .00000257  00000+0  14255-3 0  9999
#TLE: 2 43013  98.7292 322.0253 0000925  17.7040 342.4169 14.19541890371880

#Time	Az	El	Level	SNR
#Closed at: 2025-01-22 00:07:17.908642